full_name,a,e,i,om,w,q,ad,per_y,data_arc,condition_code,n_obs_used,n_del_obs_used,n_dop_obs_used,H
"       (2015 XA379)",1.287639263241471,.2182279126291578,1.345897454323676,148.5448787890383,349.4610035118085,1.006640434604938,1.568638091878004,1.4611658674489,123,4,280,0,1,25.3
"       (2015 YF)",1.050726778029996,.1942464565295672,16.46848079637151,80.21130111691174,254.6207150180945,.8466268246169399,1.254826731443051,1.0770674542561,4,8,22,,,24.9
"       (2015 YH)",1.24643845619383,.2629635926313657,4.97399339590546,83.39007963954877,304.9231942083449,.9186705217592073,1.574206390628453,1.39160013404283,2,8,18,,,27.9
"       (2015 YJ)",1.263422255027,.5228448629097947,.1205567183701194,264.8271175831753,79.0225705845433,.6028484193002245,1.923996090753776,1.42013943177136,3,7,29,,,28.2
"       (2015 YK)",1.094217932960232,.1187224530210485,4.696027889857895,258.9028565690031,237.3300181307331,.964309695819572,1.224126170100892,1.14462689022797,26,5,96,,,25.9
"       (2015 YA1)",1.070580972151179,.1870720029480831,6.578059592462024,266.3811454574302,86.338356614188,.8703052453727519,1.270856698929606,1.10773909307635,15,7,66,,,24.5
"       (2015 YC1)",1.083915034819589,.2558367605369254,6.657729305748731,266.1662544309681,267.8973216421901,.8066097236140767,1.361220346025101,1.12849869918838,552,1,98,,,26.0
"       (2015 YE1)",1.20388337915182,.3206503672699577,10.13816291958282,86.08679798838889,77.71895921419133,.817857731476591,1.589909026827048,1.32094528849422,4,7,61,,,27.4
"       (2015 YM1)",1.040905703495334,.2046177544610796,5.235830751521881,86.29720386274593,270.2881857782359,.8279179158403889,1.25389349115028,1.06200187757413,20,6,39,,,28.4
"       (2015 YP1)",1.240232396353778,.1812190892469866,14.8528506766797,273.1942266436736,225.3940940049078,1.015478611031938,1.464986181675617,1.38121984464771,49,6,54,,,23.0
"       (2015 YU1)",1.114134346694577,.1131905724587005,7.82611156972944,269.1608833864872,265.6468992871029,.9880248421963177,1.240243851192837,1.1760195640841,235,3,90,,,24.8
"       (2015 YD10)",1.143981871800863,.07778113525584718,25.10473236114943,101.7122435868452,50.79655732210703,1.055001663100083,1.232962080501644,1.22359280876659,14,7,26,,,23.7
"       (2015 YN10)",1.087175118650068,.7014954145977242,23.8528884063821,310.8964253168288,2.086884033268402,.3245267580523086,1.849823479247828,1.13359379223244,28,6,34,,,20.8
"       (2015 YO10)",1.121755614288132,.0999585168009223,2.427318040520579,298.0292878209999,132.077173602482,1.009626586870783,1.233884641705481,1.18810706936506,11,7,28,,,26.6
"       (2015 YQ10)",1.24971911790833,.2150112730746143,15.00191538523444,268.1291754451193,152.9678035034442,.981015419381176,1.518422816435484,1.39709784472577,1,7,18,,,27.0
"       (2015 YV20)",1.254285211466552,.2394376634174629,7.916749005780559,49.04960448560126,136.642327110385,.9539620911739228,1.554608331759182,1.40476169033006,19,7,13,,,22.141
"       (2016 AG2)",1.241826748886959,.2090187777524267,17.73995083104926,286.3590288440647,118.0152483347842,.9822616396543368,1.50139185811958,1.383884094039,13,7,33,,,23.7
"       (2016 AT8)",1.239924874480638,.1255643031867265,7.216988270813329,107.9983447587168,284.7088517918824,1.084234571612587,1.395615177348689,1.38070615586171,26,7,20,,,23.9
"       (2016 AB9)",1.068840078518292,.08538196565908093,6.832137857906821,83.69725654961351,254.2930551171791,.9775804116391934,1.16009974539739,1.10503821598789,29,5,24,,,24.7
"       (2016 AO9)",1.14808231700937,.5092626684804448,26.99814854202936,290.9097177935203,47.8723513361917,.5634068526139665,1.732757781404774,1.23017739980451,11,8,18,,,22.3
"       (2016 AH65)",1.185608844473527,.2002227414805352,13.79570031441673,284.4203488442682,131.6861797838504,.948222991309468,1.422994697637586,1.29098247829698,4,7,24,,,25.8
"       (2016 AW65)",1.091118284803521,.104488960902966,8.629951738410851,124.7882148794014,251.0036026500027,.9771084690021747,1.205128100604868,1.13976666989111,24,6,35,,,24.1
"       (2016 AZ65)",1.113615817841396,.137228963382134,8.822897815713089,268.8835160592819,350.8563438084778,.9607954735530737,1.266436162129718,1.17519866337251,5011,0,75,,,22.0
"       (2016 AT131)",1.22531846467098,.2235955111540664,7.739616278154304,292.5890320605182,133.2867213037387,.9513427562363566,1.499294173105604,1.35638091178231,6,7,33,,,27.4
"       (2016 AH164)",1.14956120967252,.2487396437554804,1.737938565595282,291.0135224908193,112.9274722544217,.863619763903458,1.435502655441582,1.23255512924611,5,6,43,,,29.7
"       (2016 AX164)",1.176101504153588,.1754707201894828,13.46680831246127,111.0341621036257,320.4338448020217,.9697301262038237,1.382472882103352,1.27548516094644,5,6,20,,,26.2
"       (2016 AK165)",1.288288768947369,.265927314706336,1.325558801552269,237.6629473478395,173.7974668315599,.9456975960548638,1.630879941839874,1.46227155977559,17,8,26,,,23.8
"       (2016 AN165)",1.144635366589674,.327234025077576,9.707747777022627,112.56297963,277.036304199537,.7700717283343881,1.51919900484496,1.22464141678216,2,6,30,,,27.7
"       (2016 AX165)",1.183114348594593,.2666723339457427,7.374473502378148,142.1725575497549,79.52689351938456,.8676104839301757,1.49861821325901,1.28691032245255,271,4,68,,,23.0
"       (2016 AU192)",1.135587023249768,.3847995208848136,24.04761794844933,278.5428263016898,337.885821782738,.6986136807802459,1.572560365719291,1.21014896537111,32,6,11,,,21.9
"       (2016 BR)",1.29039250662421,.2656481037357836,9.534692943789889,113.3098973278214,308.2196027683898,.9476021841646243,1.633182829083796,1.46585479129631,9,8,28,,,25.6
"       (2016 BW)",1.187084854418459,.2476569278661727,14.6405997127746,116.9441117939986,289.4140279850786,.8930950662567207,1.481074642580197,1.2933940189004,11,8,18,,,26.1
"       (2016 BG15)",1.203591990951591,.1465268553958537,15.59844871262685,127.0690936891611,359.8528220777101,1.027233441337819,1.379950540565362,1.32046573467886,2,7,26,,,27.0
"       (2016 BU39)",1.186983930785617,.1964564492097617,16.28720799471221,128.5293105851186,58.26355908056268,.9537932824744294,1.420174579096805,1.29322907966106,4,8,27,,,26.8
"       (2016 BS67)",1.059414854676499,.04374374266151964,6.511185744224236,318.7787065135223,113.7610157736908,1.013072083901739,1.105757625451259,1.09045384825676,36,5,41,,,26.2
"       (2016 BX80)",1.280758606617534,.3690695493936623,5.841789403904508,341.886338341758,342.1342627067094,.8080696047911458,1.753447608443921,1.44946965173879,1156,3,34,,,20.6
"       (2016 CO29)",1.061100459516771,.2436805789622686,2.864279714099744,123.4124015900316,114.4631840364808,.8025308852045947,1.319670033828947,1.09305736831752,32,6,72,,,25.0
"       (2016 CA30)",1.184545682977468,.2519978759277514,3.435122870187718,137.922202302956,282.5131871065132,.8860426869277587,1.483048679027178,1.28924638911728,8,7,26,,,27.5
"       (2016 CZ30)",1.076205560062582,.2107168396991559,20.65340333037365,317.3385987769753,96.50061731333923,.8494309255795348,1.30298019454563,1.11648026132275,6,7,96,,,25.7
"       (2016 CD31)",1.044499774608049,.4543664236211448,.4518232234902433,241.1768285591024,12.07313049270292,.5699141475462979,1.5190854016698,1.06750699174959,6,7,58,,,26.9
"       (2016 CF31)",1.085139202688999,.4786958291599315,15.15984842463373,146.6786464248558,211.1420751351229,.5656875923038419,1.604590813074157,1.1304110195094,31,6,38,,,21.7
"       (2016 CE32)",1.185749757773724,.3594017041365773,5.137475945117204,11.43583674663528,223.4404160830763,.7595892741503137,1.611910241397134,1.2912126410622,12,8,48,,,23.9
"       (2016 CZ135)",1.252201421462938,.4158751669974617,8.215156246440472,164.2904696542379,138.4970808073159,.7314419461975796,1.772960896728295,1.40126247154048,1120,1,78,,,20.5
"       (2016 CJ136)",1.066956753822912,.3795058752284732,28.89903825155856,127.2327352949841,160.9207167982067,.6620403971324172,1.471873110513407,1.10211884276919,330,3,29,,,21.6
"       (2016 CD137)",1.082794402617913,.2336751857084206,4.554358071697003,137.9061295051715,94.4106956194515,.8297722195021339,1.335816585733692,1.12674906243109,10,6,110,,,26.1
"       (2016 CF137)",1.090447277320026,.1001252373806338,2.444735524078523,132.5467412741572,301.495503595836,.9812659848272928,1.19962856981276,1.13871544421457,102,4,50,,,25.6
"       (2016 CG137)",1.216119186611272,.2592582704590883,21.52668612159463,324.9093308440562,248.1560596453353,.9008302296183205,1.531408143604224,1.34113474130246,18,7,48,,,24.2
"       (2016 CK137)",1.173308276400901,.3461779188141983,.7933904190905975,314.6789563957544,95.39295288113114,.7671348591489626,1.579481693652839,1.27094396572161,8,7,30,,,27.3
"       (2016 CY137)",1.23206609492971,.1676099039215747,29.0849579648769,139.4634010786168,339.6911889701364,1.025559615133512,1.438572574725909,1.36760037726362,4,7,36,,,26.5
"       (2016 CA193)",1.127556151355365,.03736688731460532,7.805154583756075,324.1890083270425,219.194714163103,1.085422887706779,1.169689415003951,1.19733442750285,40,5,54,,,24.8
"       (2016 CF194)",1.289938753901209,.2042300886616463,1.642683185576875,114.9648439205163,101.3364377184933,1.026494447823872,1.553383059978547,1.46508168103225,152,4,163,0,2,24.1
"       (2016 CM195)",1.204610474277443,.2382553738422204,19.53829090443872,324.6264053734678,287.6418179342726,.9176055553942168,1.49161539316067,1.32214216258624,21,7,35,,,23.5
"       (2016 CP195)",1.173759690011402,.196207036823308,24.56944261714928,324.0081484463246,236.5915183959284,.9434597792916199,1.404059600731183,1.2716775025871,4,8,30,,,26.5
"       (2016 CT246)",1.203870671039201,.1831215958178812,36.98492994453603,319.6096554179592,120.3527229723642,.983415952600159,1.424325389478243,1.32092437283393,21,8,56,,,22.9
"       (2016 CV246)",1.051046823159151,.1502155812223855,7.104960142483304,337.626695938045,79.54800630655492,.8931632137263578,1.208930432591945,1.07755959424085,52,4,79,,,25.4
